TURKSAT 4B              
1 40984U 15060A   15333.67152193  .00000105  00000-0  00000+0 0  9991
2 40984   0.0348  68.8074 0001584 169.0102 122.1809  1.00270732   490
